{
  "type": "FeatureCollection",
  "features": [
    {
      "type": "Feature",
      "properties": {
        "norad_id": 28890,
        "name": "BEIJING 1",
        "group": "dmc",
        "lat": 39.890650921489126,
        "lon": -48.50497776599416,
        "alt_km": 669.4155286707755,
        "timestamp": "2025-12-22T23:36:20.366533+00:00",
        "meta_object_name": "BEIJING 1",
        "meta_object_id": "2005-043A",
        "meta_epoch": "2025-12-22T14:45:58.647168",
        "meta_mean_motion": 14.63375519,
        "meta_eccentricity": 0.00157698,
        "meta_inclination": 98.2663,
        "meta_ra_of_asc_node": 124.1463,
        "meta_arg_of_pericenter": 112.1425,
        "meta_mean_anomaly": 248.1452,
        "meta_ephemeris_type": 0,
        "meta_classification_type": "U",
        "meta_norad_cat_id": 28890,
        "meta_element_set_no": 999,
        "meta_rev_at_epoch": 7482,
        "meta_bstar": 0.00013349801,
        "meta_mean_motion_dot": 6.42e-06,
        "meta_mean_motion_ddot": 0,
        "tle_line1": "1 28890U 05043A   25356.61526212  .00000642  00000+0  13350-3 0  9991",
        "tle_line2": "2 28890  98.2663 124.1463 0015769 112.1425 248.1452 14.63375519 74829"
      },
      "geometry": {
        "type": "Point",
        "coordinates": [
          -48.50497776599416,
          39.890650921489126
        ]
      }
    },
    {
      "type": "Feature",
      "properties": {
        "norad_id": 33320,
        "name": "HUANJING 1A (HJ-1A)",
        "group": "dmc",
        "lat": -4.32130784941386,
        "lon": 164.27202470190883,
        "alt_km": 635.7080831523435,
        "timestamp": "2025-12-22T23:36:20.366559+00:00",
        "meta_object_name": "HUANJING 1A (HJ-1A)",
        "meta_object_id": "2008-041A",
        "meta_epoch": "2025-12-22T14:41:00.080736",
        "meta_mean_motion": 14.83423626,
        "meta_eccentricity": 0.001944,
        "meta_inclination": 97.6541,
        "meta_ra_of_asc_node": 344.498,
        "meta_arg_of_pericenter": 3.2392,
        "meta_mean_anomaly": 356.8945,
        "meta_ephemeris_type": 0,
        "meta_classification_type": "U",
        "meta_norad_cat_id": 33320,
        "meta_element_set_no": 999,
        "meta_rev_at_epoch": 93222,
        "meta_bstar": 0.00018712343,
        "meta_mean_motion_dot": 1.49e-05,
        "meta_mean_motion_ddot": 0,
        "tle_line1": "1 33320U 08041A   25356.61180649  .00001490  00000+0  18712-3 0  9995",
        "tle_line2": "2 33320  97.6541 344.4980 0019440   3.2392 356.8945 14.83423626932221"
      },
      "geometry": {
        "type": "Point",
        "coordinates": [
          164.27202470190883,
          -4.32130784941386
        ]
      }
    },
    {
      "type": "Feature",
      "properties": {
        "norad_id": 33321,
        "name": "HUANJING 1B (HJ-1B)",
        "group": "dmc",
        "lat": 23.65013038891547,
        "lon": -14.845609689882949,
        "alt_km": 594.800762921991,
        "timestamp": "2025-12-22T23:36:20.366574+00:00",
        "meta_object_name": "HUANJING 1B (HJ-1B)",
        "meta_object_id": "2008-041B",
        "meta_epoch": "2025-12-22T13:46:55.193952",
        "meta_mean_motion": 14.82843274,
        "meta_eccentricity": 0.00379463,
        "meta_inclination": 97.6398,
        "meta_ra_of_asc_node": 348.1331,
        "meta_arg_of_pericenter": 44.5736,
        "meta_mean_anomaly": 315.8519,
        "meta_ephemeris_type": 0,
        "meta_classification_type": "U",
        "meta_norad_cat_id": 33321,
        "meta_element_set_no": 999,
        "meta_rev_at_epoch": 93223,
        "meta_bstar": 6.8120857e-05,
        "meta_mean_motion_dot": 5.06e-06,
        "meta_mean_motion_ddot": 0,
        "tle_line1": "1 33321U 08041B   25356.57424993  .00000506  00000+0  68121-4 0  9991",
        "tle_line2": "2 33321  97.6398 348.1331 0037946  44.5736 315.8519 14.82843274932231"
      },
      "geometry": {
        "type": "Point",
        "coordinates": [
          -14.845609689882949,
          23.65013038891547
        ]
      }
    },
    {
      "type": "Feature",
      "properties": {
        "norad_id": 33446,
        "name": "YAOGAN-4",
        "group": "dmc",
        "lat": -67.70033858753358,
        "lon": -53.17558652797317,
        "alt_km": 618.9204641580118,
        "timestamp": "2025-12-22T23:36:20.366587+00:00",
        "meta_object_name": "YAOGAN-4",
        "meta_object_id": "2008-061A",
        "meta_epoch": "2025-12-22T07:43:11.170848",
        "meta_mean_motion": 14.8270923,
        "meta_eccentricity": 0.00130547,
        "meta_inclination": 97.9196,
        "meta_ra_of_asc_node": 286.3274,
        "meta_arg_of_pericenter": 289.4771,
        "meta_mean_anomaly": 70.5032,
        "meta_ephemeris_type": 0,
        "meta_classification_type": "U",
        "meta_norad_cat_id": 33446,
        "meta_element_set_no": 999,
        "meta_rev_at_epoch": 91945,
        "meta_bstar": 0.00016579598,
        "meta_mean_motion_dot": 1.286e-05,
        "meta_mean_motion_ddot": 0,
        "tle_line1": "1 33446U 08061A   25356.32165707  .00001286  00000+0  16580-3 0  9996",
        "tle_line2": "2 33446  97.9196 286.3274 0013054 289.4771  70.5032 14.82709230919457"
      },
      "geometry": {
        "type": "Point",
        "coordinates": [
          -53.17558652797317,
          -67.70033858753358
        ]
      }
    },
    {
      "type": "Feature",
      "properties": {
        "norad_id": 35681,
        "name": "DEIMOS-1",
        "group": "dmc",
        "lat": 43.71373649615227,
        "lon": -15.443229276831334,
        "alt_km": 641.0818710129524,
        "timestamp": "2025-12-22T23:36:20.366599+00:00",
        "meta_object_name": "DEIMOS-1",
        "meta_object_id": "2009-041A",
        "meta_epoch": "2025-12-22T13:13:25.798656",
        "meta_mean_motion": 14.74966388,
        "meta_eccentricity": 0.00025403,
        "meta_inclination": 97.7149,
        "meta_ra_of_asc_node": 156.6976,
        "meta_arg_of_pericenter": 64.3499,
        "meta_mean_anomaly": 295.7973,
        "meta_ephemeris_type": 0,
        "meta_classification_type": "U",
        "meta_norad_cat_id": 35681,
        "meta_element_set_no": 999,
        "meta_rev_at_epoch": 88084,
        "meta_bstar": 0.00010938921,
        "meta_mean_motion_dot": 6.88e-06,
        "meta_mean_motion_ddot": 0,
        "tle_line1": "1 35681U 09041A   25356.55099304  .00000688  00000+0  10939-3 0  9999",
        "tle_line2": "2 35681  97.7149 156.6976 0002540  64.3499 295.7973 14.74966388880844"
      },
      "geometry": {
        "type": "Point",
        "coordinates": [
          -15.443229276831334,
          43.71373649615227
        ]
      }
    },
    {
      "type": "Feature",
      "properties": {
        "norad_id": 35683,
        "name": "UK-DMC 2",
        "group": "dmc",
        "lat": 4.201066836494919,
        "lon": -47.821329250539506,
        "alt_km": 645.4595013533353,
        "timestamp": "2025-12-22T23:36:20.366610+00:00",
        "meta_object_name": "UK-DMC 2",
        "meta_object_id": "2009-041C",
        "meta_epoch": "2025-12-22T14:40:31.372608",
        "meta_mean_motion": 14.75641387,
        "meta_eccentricity": 0.00015479,
        "meta_inclination": 97.8568,
        "meta_ra_of_asc_node": 131.236,
        "meta_arg_of_pericenter": 92.4179,
        "meta_mean_anomaly": 267.7208,
        "meta_ephemeris_type": 0,
        "meta_classification_type": "U",
        "meta_norad_cat_id": 35683,
        "meta_element_set_no": 999,
        "meta_rev_at_epoch": 88052,
        "meta_bstar": 0.00016617131,
        "meta_mean_motion_dot": 1.085e-05,
        "meta_mean_motion_ddot": 0,
        "tle_line1": "1 35683U 09041C   25356.61147422  .00001085  00000+0  16617-3 0  9994",
        "tle_line2": "2 35683  97.8568 131.2360 0001547  92.4179 267.7208 14.75641387880526"
      },
      "geometry": {
        "type": "Point",
        "coordinates": [
          -47.821329250539506,
          4.201066836494919
        ]
      }
    },
    {
      "type": "Feature",
      "properties": {
        "norad_id": 40715,
        "name": "DMC3-FM1",
        "group": "dmc",
        "lat": -45.44926112629176,
        "lon": 35.93555496342547,
        "alt_km": 617.2376178088689,
        "timestamp": "2025-12-22T23:36:20.366621+00:00",
        "meta_object_name": "DMC3-FM1",
        "meta_object_id": "2015-032A",
        "meta_epoch": "2025-12-22T14:30:29.313216",
        "meta_mean_motion": 14.85457527,
        "meta_eccentricity": 0.00040598,
        "meta_inclination": 97.6686,
        "meta_ra_of_asc_node": 223.4371,
        "meta_arg_of_pericenter": 280.8122,
        "meta_mean_anomaly": 79.2636,
        "meta_ephemeris_type": 0,
        "meta_classification_type": "U",
        "meta_norad_cat_id": 40715,
        "meta_element_set_no": 999,
        "meta_rev_at_epoch": 56369,
        "meta_bstar": 0.00013148348,
        "meta_mean_motion_dot": 1.082e-05,
        "meta_mean_motion_ddot": 0,
        "tle_line1": "1 40715U 15032A   25356.60450594  .00001082  00000+0  13148-3 0  9992",
        "tle_line2": "2 40715  97.6686 223.4371 0004059 280.8122  79.2636 14.85457527563694"
      },
      "geometry": {
        "type": "Point",
        "coordinates": [
          35.93555496342547,
          -45.44926112629176
        ]
      }
    },
    {
      "type": "Feature",
      "properties": {
        "norad_id": 40716,
        "name": "DMC3-FM2",
        "group": "dmc",
        "lat": 72.48537482206217,
        "lon": 70.54862792410805,
        "alt_km": 608.4622901810153,
        "timestamp": "2025-12-22T23:36:20.366631+00:00",
        "meta_object_name": "DMC3-FM2",
        "meta_object_id": "2015-032B",
        "meta_epoch": "2025-12-22T15:02:51.872928",
        "meta_mean_motion": 14.85456531,
        "meta_eccentricity": 0.00046762,
        "meta_inclination": 97.6744,
        "meta_ra_of_asc_node": 224.9097,
        "meta_arg_of_pericenter": 287.6822,
        "meta_mean_anomaly": 72.3883,
        "meta_ephemeris_type": 0,
        "meta_classification_type": "U",
        "meta_norad_cat_id": 40716,
        "meta_element_set_no": 999,
        "meta_rev_at_epoch": 56369,
        "meta_bstar": 2.3165723e-05,
        "meta_mean_motion_dot": 1.48e-06,
        "meta_mean_motion_ddot": 0,
        "tle_line1": "1 40716U 15032B   25356.62698927  .00000148  00000+0  23166-4 0  9993",
        "tle_line2": "2 40716  97.6744 224.9097 0004676 287.6822  72.3883 14.85456531563690"
      },
      "geometry": {
        "type": "Point",
        "coordinates": [
          70.54862792410805,
          72.48537482206217
        ]
      }
    },
    {
      "type": "Feature",
      "properties": {
        "norad_id": 40717,
        "name": "DMC3-FM3",
        "group": "dmc",
        "lat": -10.271268963728966,
        "lon": -131.70558499150667,
        "alt_km": 615.1536295921542,
        "timestamp": "2025-12-22T23:36:20.366641+00:00",
        "meta_object_name": "DMC3-FM3",
        "meta_object_id": "2015-032C",
        "meta_epoch": "2025-12-22T13:57:07.669728",
        "meta_mean_motion": 14.85440849,
        "meta_eccentricity": 0.00040749,
        "meta_inclination": 97.6797,
        "meta_ra_of_asc_node": 226.5053,
        "meta_arg_of_pericenter": 288.6242,
        "meta_mean_anomaly": 71.4531,
        "meta_ephemeris_type": 0,
        "meta_classification_type": "U",
        "meta_norad_cat_id": 40717,
        "meta_element_set_no": 999,
        "meta_rev_at_epoch": 56369,
        "meta_bstar": 1.1138273e-05,
        "meta_mean_motion_dot": 4.4e-07,
        "meta_mean_motion_ddot": 0,
        "tle_line1": "1 40717U 15032C   25356.58133877  .00000044  00000+0  11138-4 0  9998",
        "tle_line2": "2 40717  97.6797 226.5053 0004074 288.6242  71.4531 14.85440849563693"
      },
      "geometry": {
        "type": "Point",
        "coordinates": [
          -131.70558499150667,
          -10.271268963728966
        ]
      }
    }
  ]
}